{"type": "FeatureCollection", "features": [ {"type": "Feature", "properties": {"norad_id": 66570, "name": "STARLINK-35834", "group": "last-30-days", "lat": 13.409905099765929, "lon": 97.64201056877724, "alt_km": 412.58049215055235, "timestamp": "2025-12-19T06:59:42.649342+00:00", "meta": {"OBJECT_NAME": "STARLINK-35834", "OBJECT_ID": "2025-268P", "EPOCH": "2025-12-18T13:54:20.396736", "MEAN_MOTION": 15.50622128, "ECCENTRICITY": 0.00019453, "INCLINATION": 43.0029, "RA_OF_ASC_NODE": 86.986, "ARG_OF_PERICENTER": 272.5695, "MEAN_ANOMALY": 87.4943, "EPHEMERIS_TYPE": 0, "CLASSIFICATION_TYPE": "U", "NORAD_CAT_ID": 66570, "ELEMENT_SET_NO": 999, "REV_AT_EPOCH": 553, "BSTAR": 0.001951259, "MEAN_MOTION_DOT": 0.0011602, "MEAN_MOTION_DDOT": 0}, "tle": {"line1": "1 66570U 25268P   25352.57940274  .00116020  00000+0  19513-2 0  9992", "line2": "2 66570  43.0029  86.9860 0001945 272.5695  87.4943 15.50622128  5536"}}, "geometry": {"type": "Point", "coordinates": [97.64201056877724, 13.409905099765929]}}, {"type": "Feature", "properties": {"norad_id": 66571, "name": "STARLINK-35836", "group": "last-30-days", "lat": 14.589097758514024, "lon": 99.03082849243391, "alt_km": 413.1090626578116, "timestamp": "2025-12-19T06:59:42.649351+00:00", "meta": {"OBJECT_NAME": "STARLINK-35836", "OBJECT_ID": "2025-268Q", "EPOCH": "2025-12-18T15:26:35.940192", "MEAN_MOTION": 15.50617187, "ECCENTRICITY": 0.00024915, "INCLINATION": 43.003, "RA_OF_ASC_NODE": 86.6048, "ARG_OF_PERICENTER": 261.4682, "MEAN_ANOMALY": 98.5896, "EPHEMERIS_TYPE": 0, "CLASSIFICATION_TYPE": "U", "NORAD_CAT_ID": 66571, "ELEMENT_SET_NO": 999, "REV_AT_EPOCH": 554, "BSTAR": 0.0010497199, "MEAN_MOTION_DOT": 0.00061816, "MEAN_MOTION_DDOT": 0}, "tle": {"line1": "1 66571U 25268Q   25352.64347153  .00061816  00000+0  10497-2 0  9992", "line2": "2 66571  43.0030  86.6048 0002491 261.4682  98.5896 15.50617187  5544"}}, "geometry": {"type": "Point", "coordinates": [99.03082849243391, 14.589097758514024]}}, {"type": "Feature", "properties": {"norad_id": 66572, "name": "STARLINK-35870", "group": "last-30-days", "lat": 15.833965133981202, "lon": 100.53184219929095, "alt_km": 412.63042388344, "timestamp": "2025-12-19T06:59:42.649361+00:00", "meta": {"OBJECT_NAME": "STARLINK-35870", "OBJECT_ID": "2025-268R", "EPOCH": "2025-12-18T15:26:06.608256", "MEAN_MOTION": 15.50618966, "ECCENTRICITY": 0.00017111, "INCLINATION": 42.998, "RA_OF_ASC_NODE": 86.605, "ARG_OF_PERICENTER": 265.1902, "MEAN_ANOMALY": 94.8763, "EPHEMERIS_TYPE": 0, "CLASSIFICATION_TYPE": "U", "NORAD_CAT_ID": 66572, "ELEMENT_SET_NO": 999, "REV_AT_EPOCH": 554, "BSTAR": 0.0011218893, "MEAN_MOTION_DOT": 0.00066127, "MEAN_MOTION_DDOT": 0}, "tle": {"line1": "1 66572U 25268R   25352.64313204  .00066127  00000+0  11219-2 0  9996", "line2": "2 66572  42.9980  86.6050 0001711 265.1902  94.8763 15.50618966  5548"}}, "geometry": {"type": "Point", "coordinates": [100.53184219929095, 15.833965133981202]}}, {"type": "Feature", "properties": {"norad_id": 66573, "name": "STARLINK-35650", "group": "last-30-days", "lat": 17.10576013856588, "lon": 102.08915125911999, "alt_km": 411.99437484086684, "timestamp": "2025-12-19T06:59:42.649372+00:00", "meta": {"OBJECT_NAME": "STARLINK-35650", "OBJECT_ID": "2025-268S", "EPOCH": "2025-12-18T15:25:37.085376", "MEAN_MOTION": 15.5062052, "ECCENTRICITY": 0.00016061, "INCLINATION": 43.0016, "RA_OF_ASC_NODE": 86.6015, "ARG_OF_PERICENTER": 282.8166, "MEAN_ANOMALY": 77.2515, "EPHEMERIS_TYPE": 0, "CLASSIFICATION_TYPE": "U", "NORAD_CAT_ID": 66573, "ELEMENT_SET_NO": 999, "REV_AT_EPOCH": 554, "BSTAR": 0.0016769722, "MEAN_MOTION_DOT": 0.00099444, "MEAN_MOTION_DDOT": 0}, "tle": {"line1": "1 66573U 25268S   25352.64279034  .00099444  00000+0  16770-2 0  9994", "line2": "2 66573  43.0016  86.6015 0001606 282.8166  77.2515 15.50620520  5542"}}, "geometry": {"type": "Point", "coordinates": [102.08915125911999, 17.10576013856588]}}, {"type": "Feature", "properties": {"norad_id": 66574, "name": "STARLINK-35812", "group": "last-30-days", "lat": 18.198517203781915, "lon": 103.45732555971419, "alt_km": 412.2154254262323, "timestamp": "2025-12-19T06:59:42.649382+00:00", "meta": {"OBJECT_NAME": "STARLINK-35812", "OBJECT_ID": "2025-268T", "EPOCH": "2025-12-18T13:52:23.853504", "MEAN_MOTION": 15.50580135, "ECCENTRICITY": 9.911e-05, "INCLINATION": 43.0017, "RA_OF_ASC_NODE": 86.9742, "ARG_OF_PERICENTER": 254.2055, "MEAN_ANOMALY": 105.8696, "EPHEMERIS_TYPE": 0, "CLASSIFICATION_TYPE": "U", "NORAD_CAT_ID": 66574, "ELEMENT_SET_NO": 999, "REV_AT_EPOCH": 553, "BSTAR": 0.0014172394, "MEAN_MOTION_DOT": 0.00083697, "MEAN_MOTION_DDOT": 0}, "tle": {"line1": "1 66574U 25268T   25352.57805386  .00083697  00000+0  14172-2 0  9999", "line2": "2 66574  43.0017  86.9742 0000991 254.2055 105.8696 15.50580135  5534"}}, "geometry": {"type": "Point", "coordinates": [103.45732555971419, 18.198517203781915]}}, {"type": "Feature", "properties": {"norad_id": 66575, "name": "STARLINK-35810", "group": "last-30-days", "lat": 19.506146982542358, "lon": 105.14018729472991, "alt_km": 412.31558716148265, "timestamp": "2025-12-19T06:59:42.649392+00:00", "meta": {"OBJECT_NAME": "STARLINK-35810", "OBJECT_ID": "2025-268U", "EPOCH": "2025-12-18T15:24:37.674144", "MEAN_MOTION": 15.50612972, "ECCENTRICITY": 0.00019354, "INCLINATION": 42.9983, "RA_OF_ASC_NODE": 86.5957, "ARG_OF_PERICENTER": 262.7543, "MEAN_ANOMALY": 97.3098, "EPHEMERIS_TYPE": 0, "CLASSIFICATION_TYPE": "U", "NORAD_CAT_ID": 66575, "ELEMENT_SET_NO": 999, "REV_AT_EPOCH": 554, "BSTAR": 0.0010402441, "MEAN_MOTION_DOT": 0.00061239, "MEAN_MOTION_DDOT": 0}, "tle": {"line1": "1 66575U 25268U   25352.64210271  .00061239  00000+0  10402-2 0  9991", "line2": "2 66575  42.9983  86.5957 0001935 262.7543  97.3098 15.50612972  5541"}}, "geometry": {"type": "Point", "coordinates": [105.14018729472991, 19.506146982542358]}}, {"type": "Feature", "properties": {"norad_id": 66576, "name": "STARLINK-35814", "group": "last-30-days", "lat": 20.81908015678399, "lon": 106.87229405661367, "alt_km": 411.46422952822013, "timestamp": "2025-12-19T06:59:42.649405+00:00", "meta": {"OBJECT_NAME": "STARLINK-35814", "OBJECT_ID": "2025-268V", "EPOCH": "2025-12-18T13:51:22.756608", "MEAN_MOTION": 15.50643987, "ECCENTRICITY": 7.852e-05, "INCLINATION": 42.9999, "RA_OF_ASC_NODE": 86.9684, "ARG_OF_PERICENTER": 254.7865, "MEAN_ANOMALY": 105.2909, "EPHEMERIS_TYPE": 0, "CLASSIFICATION_TYPE": "U", "NORAD_CAT_ID": 66576, "ELEMENT_SET_NO": 999, "REV_AT_EPOCH": 553, "BSTAR": 0.0017580641, "MEAN_MOTION_DOT": 0.00104423, "MEAN_MOTION_DDOT": 0}, "tle": {"line1": "1 66576U 25268V   25352.57734672  .00104423  00000+0  17581-2 0  9998", "line2": "2 66576  42.9999  86.9684 0000785 254.7865 105.2909 15.50643987  5539"}}, "geometry": {"type": "Point", "coordinates": [106.87229405661367, 20.81908015678399]}}, {"type": "Feature", "properties": {"norad_id": 66577, "name": "STARLINK-35815", "group": "last-30-days", "lat": 21.96408812470654, "lon": 108.43134256799287, "alt_km": 411.6636065639741, "timestamp": "2025-12-19T06:59:42.649429+00:00", "meta": {"OBJECT_NAME": "STARLINK-35815", "OBJECT_ID": "2025-268W", "EPOCH": "2025-12-18T13:50:52.755072", "MEAN_MOTION": 15.50637566, "ECCENTRICITY": 8.26e-05, "INCLINATION": 42.9975, "RA_OF_ASC_NODE": 86.9649, "ARG_OF_PERICENTER": 201.5718, "MEAN_ANOMALY": 158.5107, "EPHEMERIS_TYPE": 0, "CLASSIFICATION_TYPE": "U", "NORAD_CAT_ID": 66577, "ELEMENT_SET_NO": 999, "REV_AT_EPOCH": 553, "BSTAR": 0.0011034269, "MEAN_MOTION_DOT": 0.00065066, "MEAN_MOTION_DDOT": 0}, "tle": {"line1": "1 66577U 25268W   25352.57699948  .00065066  00000+0  11034-2 0  9991", "line2": "2 66577  42.9975  86.9649 0000826 201.5718 158.5107 15.50637566  5535"}}, "geometry": {"type": "Point", "coordinates": [108.43134256799287, 21.96408812470654]}}, {"type": "Feature", "properties": {"norad_id": 66578, "name": "STARLINK-35743", "group": "last-30-days", "lat": 23.0719638668691, "lon": 109.98258204105966, "alt_km": 411.6368319713092, "timestamp": "2025-12-19T06:59:42.649442+00:00", "meta": {"OBJECT_NAME": "STARLINK-35743", "OBJECT_ID": "2025-268X", "EPOCH": "2025-12-18T13:50:23.446464", "MEAN_MOTION": 15.50594613, "ECCENTRICITY": 0.00029451, "INCLINATION": 42.9988, "RA_OF_ASC_NODE": 86.9631, "ARG_OF_PERICENTER": 282.0124, "MEAN_ANOMALY": 78.0406, "EPHEMERIS_TYPE": 0, "CLASSIFICATION_TYPE": "U", "NORAD_CAT_ID": 66578, "ELEMENT_SET_NO": 999, "REV_AT_EPOCH": 553, "BSTAR": 0.0013255776, "MEAN_MOTION_DOT": 0.00078256, "MEAN_MOTION_DDOT": 0}, "tle": {"line1": "1 66578U 25268X   25352.57666026  .00078256  00000+0  13256-2 0  9996", "line2": "2 66578  42.9988  86.9631 0002945 282.0124  78.0406 15.50594613  5533"}}, "geometry": {"type": "Point", "coordinates": [109.98258204105966, 23.0719638668691]}}, {"type": "Feature", "properties": {"norad_id": 66579, "name": "STARLINK-35868", "group": "last-30-days", "lat": 24.256327252588335, "lon": 111.6979140276522, "alt_km": 411.64780171445545, "timestamp": "2025-12-19T06:59:42.649452+00:00", "meta": {"OBJECT_NAME": "STARLINK-35868", "OBJECT_ID": "2025-268Y", "EPOCH": "2025-12-18T15:22:39.072864", "MEAN_MOTION": 15.50625556, "ECCENTRICITY": 0.00020922, "INCLINATION": 42.9973, "RA_OF_ASC_NODE": 86.585, "ARG_OF_PERICENTER": 263.712, "MEAN_ANOMALY": 96.3502, "EPHEMERIS_TYPE": 0, "CLASSIFICATION_TYPE": "U", "NORAD_CAT_ID": 66579, "ELEMENT_SET_NO": 999, "REV_AT_EPOCH": 554, "BSTAR": 0.0013121084, "MEAN_MOTION_DOT": 0.00077531, "MEAN_MOTION_DDOT": 0}, "tle": {"line1": "1 66579U 25268Y   25352.64073001  .00077531  00000+0  13121-2 0  9996", "line2": "2 66579  42.9973  86.5850 0002092 263.7120  96.3502 15.50625556  5544"}}, "geometry": {"type": "Point", "coordinates": [111.6979140276522, 24.256327252588335]}}]}